NORAD_CAT_ID,OBJECT_NAME,OBJECT_TYPE,EPOCH,MEAN_MOTION,ECCENTRICITY,INCLINATION,RA_OF_ASC_NODE,ARG_OF_PERICENTER,MEAN_ANOMALY,BSTAR,MEAN_MOTION_DOT,MEAN_MOTION_DDOT,TLE_LINE0,TLE_LINE1,TLE_LINE2,SEMIMAJOR_AXIS,PERIOD,APOGEE,PERIGEE,DECAYED
53572.0,STARLINK-4555,PAYLOAD,2022-09-01 22:00:00,15.73193779,0.000132,53.2162,89.7403,42.7987,327.2333,0.00030796,0.00042809,0.0,0 STARLINK-4555,1 53572U 22101AX  22244.91667824  .00042809  00000-0  30796-3 0  9996,2 53572  53.2162  89.7403 0001320  42.7987 327.2333 15.73193779  1306,6727.913000000001,91.534,350.666,348.89,0.0
53572.0,STARLINK-4555,PAYLOAD,2022-09-02 14:00:01,15.73215393,0.0001264,53.2164,86.4393,53.9125,134.0357,-4.4939e-05,-6.926e-05,0.0,0 STARLINK-4555,1 53572U 22101AX  22245.58334491 -.00006926  00000-0 -44939-4 0  9998,2 53572  53.2164  86.4393 0001264  53.9125 134.0357 15.73215393  1302,6727.851,91.532,350.56699999999995,348.866,0.0
53572.0,STARLINK-4555,PAYLOAD,2022-09-02 22:00:01,15.73233655,0.000148,53.2161,84.7918,43.2098,233.7579,-4.3818e-05,-6.774e-05,0.0,0 STARLINK-4555,1 53572U 22101AX  22245.91668981 -.00006774  00000-0 -43818-4 0  9995,2 53572  53.2161  84.7918 0001480  43.2098 233.7579 15.73233655  1308,6727.799,91.531,350.66,348.6690000000001,0.0
53572.0,STARLINK-4555,PAYLOAD,2022-09-03 04:00:00,15.73247061,0.0001341999999999,53.2156,83.5539,40.4616,213.1648,-0.00047064,-0.00066286,0.0,0 STARLINK-4555,1 53572U 22101AX  22246.16667824 -.00066286  00000-0 -47064-3 0  9998,2 53572  53.2156  83.5539 0001342  40.4616 213.1648 15.73247061  2283,6727.761,91.53,350.529,348.723,0.0
53572.0,STARLINK-4555,PAYLOAD,2022-09-03 14:00:01,15.73268219,0.0001205,53.2163,81.4908,46.5023,48.3151,-0.00033096,-0.00046944,0.0,0 STARLINK-4555,1 53572U 22101AX  22246.58334491 -.00046944  00000-0 -33096-3 0  9994,2 53572  53.2163  81.4908 0001205  46.5023  48.3151 15.73268219  1302,6727.701,91.529,350.376,348.755,0.0
53572.0,STARLINK-4555,PAYLOAD,2022-09-03 22:00:00,15.73204761,0.0001403,53.2165,79.8433,34.9155,148.9027,-0.00038459,-0.00054259,0.0,0 STARLINK-4555,1 53572U 22101AX  22246.91667824 -.00054259  00000-0 -38459-3 0  9996,2 53572  53.2165  79.8433 0001403  34.9155 148.9027 15.73204761  1306,6727.882,91.533,350.691,348.80300000000005,0.0
53572.0,STARLINK-4555,PAYLOAD,2022-09-04 06:00:00,15.73170903,0.0001215,53.2165,78.1924,31.7529,240.9724,0.00017608,0.00024132,0.0,0 STARLINK-4555,1 53572U 22101AX  22247.25001157  .00024132  00000-0  17608-3 0  9993,2 53572  53.2165  78.1924 0001215  31.7529 240.9724 15.73170903  2458,6727.978,91.535,350.661,349.026,0.0
53572.0,STARLINK-4555,PAYLOAD,2022-09-04 12:00:00,15.73203605,0.0001531999999999,53.2175,76.9497,51.7627,197.4829,1.2897e-05,1.19e-05,0.0,0 STARLINK-4555,1 53572U 22101AX  22247.50001157  .00001190  00000-0  12897-4 0  9996,2 53572  53.2175  76.9497 0001532  51.7627 197.4829 15.73203605  2495,6727.885,91.533,350.781,348.719,0.0
53572.0,STARLINK-4555,PAYLOAD,2022-09-04 14:00:01,15.73204838,0.0001573,53.2178,76.5377,51.4796,310.0645,-2.8154e-06,-1.016e-05,0.0,0 STARLINK-4555,1 53572U 22101AX  22247.58335648 -.00001016  00000-0 -28154-5 0  9992,2 53572  53.2178  76.5377 0001573  51.4796 310.0645 15.73204838  1307,6727.880999999999,91.533,350.805,348.68800000000016,0.0
53572.0,STARLINK-4555,PAYLOAD,2022-09-04 16:00:00,15.73196811,0.000144,53.2163,76.1308,42.607,71.28,0.00023544,0.00032546,0.0,0 STARLINK-4555,1 53572U 22101AX  22247.66667824  .00032546  00000-0  23544-3 0  9991,2 53572  53.2163  76.1308 0001440  42.6070  71.2800 15.73196811  2526,6727.904,91.533,350.73800000000006,348.8,0.0
53572.0,STARLINK-4555,PAYLOAD,2022-09-04 20:00:01,15.73205577,0.0001610999999999,53.2161,75.3071,39.7711,298.581,0.00031815,0.00044277,0.0,0 STARLINK-4555,1 53572U 22101AX  22247.83334491  .00044277  00000-0  31815-3 0  9995,2 53572  53.2161  75.3071 0001611  39.7711 298.5810 15.73205577  1301,6727.879,91.533,350.82800000000015,348.66,0.0
53572.0,STARLINK-4555,PAYLOAD,2022-09-05 12:00:00,15.73241753,0.0001429,53.2159,72.006,47.9781,108.309,-0.00041127,-0.00058046,0.0,0 STARLINK-4555,1 53572U 22101AX  22248.50001157 -.00058046  00000-0 -41127-3 0  9998,2 53572  53.2159  72.0060 0001429  47.9781 108.3090 15.73241753  2658,6727.776,91.531,350.603,348.68,0.0
53572.0,STARLINK-4555,PAYLOAD,2022-09-05 14:00:01,15.73240352,0.000143,53.2161,71.5941,45.8544,222.6736,-0.00055401,-0.00077791,0.0,0 STARLINK-4555,1 53572U 22101AX  22248.58334491 -.00077791  00000-0 -55401-3 0  9994,2 53572  53.2161  71.5941 0001430  45.8544 222.6736 15.73240352  1301,6727.78,91.531,350.607,348.68300000000005,0.0
53572.0,STARLINK-4555,PAYLOAD,2022-09-05 20:00:01,15.73174363,0.0001631,53.216,70.3587,38.8863,206.3398,-0.00047463,-0.00066636,0.0,0 STARLINK-4555,1 53572U 22101AX  22248.83334491 -.00066636  00000-0 -47463-3 0  9997,2 53572  53.2160  70.3587 0001631  38.8863 206.3398 15.73174363  2708,6727.968000000003,91.535,350.931,348.736,0.0
53572.0,STARLINK-4555,PAYLOAD,2022-09-06 12:00:00,15.73158629,0.0001563,53.2162,67.058,43.9933,18.9017,1.0617e-05,8.68e-06,0.0,0 STARLINK-4555,1 53572U 22101AX  22249.50001157  .00000868  00000-0  10617-4 0  9997,2 53572  53.2162  67.0580 0001563  43.9933  18.9017 15.73158629  2819,6728.013000000001,91.536,350.93,348.827,0.0
53572.0,STARLINK-4555,PAYLOAD,2022-09-06 14:00:01,15.73184919,0.0001581,53.2161,66.6462,42.8294,132.2771,-0.00037715,-0.00053184,0.0,0 STARLINK-4555,1 53572U 22101AX  22249.58334491 -.00053184  00000-0 -37715-3 0  9993,2 53572  53.2161  66.6462 0001581  42.8294 132.2771 15.73184919  1301,6727.938,91.534,350.867,348.73900000000015,0.0
53572.0,STARLINK-4555,PAYLOAD,2022-09-06 22:00:00,15.73125294,0.0001841,53.2156,64.9985,37.728,226.2715,0.00072924,0.00102655,0.0,0 STARLINK-4555,1 53572U 22101AX  22249.91667824  .00102655  00000-0  72924-3 0  9996,2 53572  53.2156  64.9985 0001841  37.7280 226.2715 15.73125294  1306,6728.108,91.538,351.212,348.735,0.0
53572.0,STARLINK-4555,PAYLOAD,2022-09-07 04:00:00,15.73196092,0.0001702,53.2152,63.7599,40.0865,200.5631,0.00013939,0.00018983,0.0,0 STARLINK-4555,1 53572U 22101AX  22250.16667824  .00018983  00000-0  13939-3 0  9996,2 53572  53.2152  63.7599 0001702  40.0865 200.5631 15.73196092  2916,6727.906,91.533,350.916,348.626,0.0
53572.0,STARLINK-4555,PAYLOAD,2022-09-07 14:00:01,15.73253249,0.0001729,53.2155,61.6977,45.0954,36.7148,-0.00044339,-0.00062531,0.0,0 STARLINK-4555,1 53572U 22101AX  22250.58334491 -.00062531  00000-0 -44339-3 0  9991,2 53572  53.2155  61.6977 0001729  45.0954  36.7148 15.73253249  1301,6727.743,91.53,350.772,348.445,0.0
53572.0,STARLINK-4555,PAYLOAD,2022-09-07 22:00:00,15.73177524,0.0001932,53.2156,60.0497,39.6177,131.1486,0.00078564,0.00111003,0.0,0 STARLINK-4555,1 53572U 22101AX  22250.91667824  .00111003  00000-0  78564-3 0  9991,2 53572  53.2156  60.0497 0001932  39.6177 131.1486 15.73177524  1300,6727.959,91.534,351.124,348.524,0.0
53572.0,STARLINK-4555,PAYLOAD,2022-09-08 14:00:01,15.73239885,0.0001725,53.2158,56.7487,36.4086,312.2649,0.00012952,0.00017626,0.0,0 STARLINK-4555,1 53572U 22101AX  22251.58334491  .00017626  00000-0  12952-3 0  9991,2 53572  53.2158  56.7487 0001725  36.4086 312.2649 15.73239885  1309,6727.781,91.531,350.807,348.486,0.0
53572.0,STARLINK-4555,PAYLOAD,2022-09-08 22:00:00,15.73251453,0.0001909999999999,53.2152,55.1004,29.831,47.8256,-0.00033032,-0.00046827,0.0,0 STARLINK-4555,1 53572U 22101AX  22251.91667824 -.00046827  00000-0 -33032-3 0  9996,2 53572  53.2152  55.1004 0001910  29.8310  47.8256 15.73251453  3192,6727.748000000001,91.53,350.898,348.32800000000015,0.0
53572.0,STARLINK-4555,PAYLOAD,2022-09-09 14:00:01,15.73258218,0.0001712,53.2155,51.7997,33.095,222.455,-0.00048738,-0.00068639,0.0,0 STARLINK-4555,1 53572U 22101AX  22252.58334491 -.00068639  00000-0 -48738-3 0  9995,2 53572  53.2155  51.7997 0001712  33.0950 222.4550 15.73258218  3290,6727.729,91.53,350.746,348.44199999999995,0.0
53572.0,STARLINK-4555,PAYLOAD,2022-09-09 22:00:00,15.73196617,0.0001966999999999,53.2157,50.1506,25.2276,319.2959,0.00011468,0.00015502,0.0,0 STARLINK-4555,1 53572U 22101AX  22252.91667824  .00015502  00000-0  11468-3 0  9990,2 53572  53.2157  50.1506 0001967  25.2276 319.2959 15.73196617  1309,6727.905,91.533,351.093,348.446,0.0
53572.0,STARLINK-4555,PAYLOAD,2022-09-10 04:00:00,15.73234151,0.0001781,53.2159,48.9124,26.1997,295.0452,-0.00070379,-0.00098395,0.0,0 STARLINK-4555,1 53572U 22101AX  22253.16667824 -.00098395  00000-0 -70379-3 0  9997,2 53572  53.2159  48.9124 0001781  26.1997 295.0452 15.73234151  3381,6727.7980000000025,91.531,350.861,348.465,0.0
53572.0,STARLINK-4555,PAYLOAD,2022-09-10 12:00:00,15.73164007,0.0001817,53.2161,47.2627,27.5284,22.6389,0.00031924,0.00044352,0.0,0 STARLINK-4555,1 53572U 22101AX  22253.50001157  .00044352  00000-0  31924-3 0  9991,2 53572  53.2161  47.2627 0001817  27.5284  22.6389 15.73164007  3440,6727.998000000001,91.535,351.085,348.64,0.0
53572.0,STARLINK-4555,PAYLOAD,2022-09-10 14:00:01,15.73179257,0.0001895,53.216,46.8508,26.3032,136.0806,0.00015151,0.00020677,0.0,0 STARLINK-4555,1 53572U 22101AX  22253.58334491  .00020677  00000-0  15151-3 0  9997,2 53572  53.2160  46.8508 0001895  26.3032 136.0806 15.73179257  1306,6727.954000000002,91.534,351.094,348.5440000000001,0.0
53572.0,STARLINK-4555,PAYLOAD,2022-09-10 22:00:00,15.73174415,0.0002161,53.2154,45.2024,25.2689,226.0203,7.7185e-05,0.00010213,0.0,0 STARLINK-4555,1 53572U 22101AX  22253.91667824  .00010213  00000-0  77185-4 0  9994,2 53572  53.2154  45.2024 0002161  25.2689 226.0203 15.73174415  1300,6727.968000000003,91.535,351.287,348.379,0.0
53572.0,STARLINK-4555,PAYLOAD,2022-09-11 04:00:00,15.73178646,0.0002045999999999,53.2157,43.9637,30.3222,197.6237,0.00035695,0.00049729,0.0,0 STARLINK-4555,1 53572U 22101AX  22254.16667824  .00049729  00000-0  35695-3 0  9995,2 53572  53.2157  43.9637 0002046  30.3222 197.6237 15.73178646  3548,6727.956,91.534,351.1980000000001,348.445,0.0
